{"type": "FeatureCollection", "features": [ {"type": "Feature", "properties": {"norad_id": 41785, "name": "ALSAT 1B", "group": "resource", "lat": 11.849526119909967, "lon": -171.01812579125232, "alt_km": 655.8354391371504, "timestamp": "2025-12-21T22:41:41.105030+00:00", "meta": {"OBJECT_NAME": "ALSAT 1B", "OBJECT_ID": "2016-059C", "EPOCH": "2025-12-21T13:46:43.725216", "MEAN_MOTION": 14.72083777, "ECCENTRICITY": 0.00107935, "INCLINATION": 97.7803, "RA_OF_ASC_NODE": 6.9826, "ARG_OF_PERICENTER": 78.5545, "MEAN_ANOMALY": 281.6874, "EPHEMERIS_TYPE": 0, "CLASSIFICATION_TYPE": "U", "NORAD_CAT_ID": 41785, "ELEMENT_SET_NO": 999, "REV_AT_EPOCH": 49444, "BSTAR": 5.0912864e-05, "MEAN_MOTION_DOT": 2.73e-06, "MEAN_MOTION_DDOT": 0}, "tle": {"line1": "1 41785U 16059C   25355.57411719  .00000273  00000+0  50913-4 0  9994", "line2": "2 41785  97.7803   6.9826 0010793  78.5545 281.6874 14.72083777494443"}}, "geometry": {"type": "Point", "coordinates": [-171.01812579125232, 11.849526119909967]}}, {"type": "Feature", "properties": {"norad_id": 41787, "name": "PATHFINDER 1", "group": "resource", "lat": 82.15671007966142, "lon": -87.14480461612743, "alt_km": 645.1658737871921, "timestamp": "2025-12-21T22:41:41.105040+00:00", "meta": {"OBJECT_NAME": "PATHFINDER 1", "OBJECT_ID": "2016-059E", "EPOCH": "2025-12-21T12:28:17.461920", "MEAN_MOTION": 14.67335413, "ECCENTRICITY": 0.00297956, "INCLINATION": 97.8136, "RA_OF_ASC_NODE": 357.8858, "ARG_OF_PERICENTER": 54.4562, "MEAN_ANOMALY": 305.9415, "EPHEMERIS_TYPE": 0, "CLASSIFICATION_TYPE": "U", "NORAD_CAT_ID": 41787, "ELEMENT_SET_NO": 999, "REV_AT_EPOCH": 49365, "BSTAR": 0.00011888517, "MEAN_MOTION_DOT": 6.29e-06, "MEAN_MOTION_DDOT": 0}, "tle": {"line1": "1 41787U 16059E   25355.51964655  .00000629  00000+0  11889-3 0  9995", "line2": "2 41787  97.8136 357.8858 0029795  54.4562 305.9415 14.67335413493656"}}, "geometry": {"type": "Point", "coordinates": [-87.14480461612743, 82.15671007966142]}}, {"type": "Feature", "properties": {"norad_id": 41790, "name": "SCATSAT 1", "group": "resource", "lat": 71.38458416656275, "lon": -102.10673459903624, "alt_km": 586.4633467217336, "timestamp": "2025-12-21T22:41:41.105050+00:00", "meta": {"OBJECT_NAME": "SCATSAT 1", "OBJECT_ID": "2016-059H", "EPOCH": "2025-12-21T14:05:53.997792", "MEAN_MOTION": 14.78963145, "ECCENTRICITY": 0.0056474, "INCLINATION": 98.1451, "RA_OF_ASC_NODE": 52.3678, "ARG_OF_PERICENTER": 100.1196, "MEAN_ANOMALY": 260.6391, "EPHEMERIS_TYPE": 0, "CLASSIFICATION_TYPE": "U", "NORAD_CAT_ID": 41790, "ELEMENT_SET_NO": 999, "REV_AT_EPOCH": 7533, "BSTAR": 0.00015867516, "MEAN_MOTION_DOT": 1.146e-05, "MEAN_MOTION_DDOT": 0}, "tle": {"line1": "1 41790U 16059H   25355.58743053  .00001146  00000+0  15868-3 0  9999", "line2": "2 41790  98.1451  52.3678 0056474 100.1196 260.6391 14.78963145 75339"}}, "geometry": {"type": "Point", "coordinates": [-102.10673459903624, 71.38458416656275]}}, {"type": "Feature", "properties": {"norad_id": 41875, "name": "GOKTURK 1A", "group": "resource", "lat": 15.92519268323983, "lon": -114.15380944090924, "alt_km": 684.5169289027499, "timestamp": "2025-12-21T22:41:41.105062+00:00", "meta": {"OBJECT_NAME": "GOKTURK 1A", "OBJECT_ID": "2016-073A", "EPOCH": "2025-12-21T14:24:46.827072", "MEAN_MOTION": 14.62787866, "ECCENTRICITY": 0.00012954, "INCLINATION": 98.1436, "RA_OF_ASC_NODE": 247.8474, "ARG_OF_PERICENTER": 83.2368, "MEAN_ANOMALY": 276.8981, "EPHEMERIS_TYPE": 0, "CLASSIFICATION_TYPE": "U", "NORAD_CAT_ID": 41875, "ELEMENT_SET_NO": 999, "REV_AT_EPOCH": 48286, "BSTAR": 2.8103651e-05, "MEAN_MOTION_DOT": 9.7e-07, "MEAN_MOTION_DDOT": 0}, "tle": {"line1": "1 41875U 16073A   25355.60054198  .00000097  00000+0  28104-4 0  9999", "line2": "2 41875  98.1436 247.8474 0001295  83.2368 276.8981 14.62787866482865"}}, "geometry": {"type": "Point", "coordinates": [-114.15380944090924, 15.92519268323983]}}, {"type": "Feature", "properties": {"norad_id": 41877, "name": "RESOURCESAT-2A", "group": "resource", "lat": 36.834693733718936, "lon": -107.60788964235432, "alt_km": 816.925194615058, "timestamp": "2025-12-21T22:41:41.105072+00:00", "meta": {"OBJECT_NAME": "RESOURCESAT-2A", "OBJECT_ID": "2016-074A", "EPOCH": "2025-12-21T15:16:10.181280", "MEAN_MOTION": 14.21603013, "ECCENTRICITY": 0.0001409, "INCLINATION": 98.7751, "RA_OF_ASC_NODE": 65.4407, "ARG_OF_PERICENTER": 213.6952, "MEAN_ANOMALY": 146.4135, "EPHEMERIS_TYPE": 0, "CLASSIFICATION_TYPE": "U", "NORAD_CAT_ID": 41877, "ELEMENT_SET_NO": 999, "REV_AT_EPOCH": 46907, "BSTAR": 7.2058108e-05, "MEAN_MOTION_DOT": 1.14e-06, "MEAN_MOTION_DDOT": 0}, "tle": {"line1": "1 41877U 16074A   25355.63622895  .00000114  00000+0  72058-4 0  9997", "line2": "2 41877  98.7751  65.4407 0001409 213.6952 146.4135 14.21603013469075"}}, "geometry": {"type": "Point", "coordinates": [-107.60788964235432, 36.834693733718936]}}, {"type": "Feature", "properties": {"norad_id": 41948, "name": "CARTOSAT-2D", "group": "resource", "lat": 38.19703447781733, "lon": -120.79637281758909, "alt_km": 501.42834574122935, "timestamp": "2025-12-21T22:41:41.105082+00:00", "meta": {"OBJECT_NAME": "CARTOSAT-2D", "OBJECT_ID": "2017-008A", "EPOCH": "2025-12-21T14:10:18.433632", "MEAN_MOTION": 15.19339894, "ECCENTRICITY": 0.00053187, "INCLINATION": 97.4376, "RA_OF_ASC_NODE": 52.9541, "ARG_OF_PERICENTER": 135.5673, "MEAN_ANOMALY": 224.5989, "EPHEMERIS_TYPE": 0, "CLASSIFICATION_TYPE": "U", "NORAD_CAT_ID": 41948, "ELEMENT_SET_NO": 999, "REV_AT_EPOCH": 49061, "BSTAR": 0.00026624184, "MEAN_MOTION_DOT": 5.56e-05, "MEAN_MOTION_DDOT": 0}, "tle": {"line1": "1 41948U 17008A   25355.59049113  .00005560  00000+0  26624-3 0  9992", "line2": "2 41948  97.4376  52.9541 0005318 135.5673 224.5989 15.19339894490618"}}, "geometry": {"type": "Point", "coordinates": [-120.79637281758909, 38.19703447781733]}}, {"type": "Feature", "properties": {"norad_id": 42063, "name": "SENTINEL-2B", "group": "resource", "lat": 54.97103513225015, "lon": 55.837872176115816, "alt_km": 783.0488113841038, "timestamp": "2025-12-21T22:41:41.105092+00:00", "meta": {"OBJECT_NAME": "SENTINEL-2B", "OBJECT_ID": "2017-013A", "EPOCH": "2025-12-21T14:02:34.032768", "MEAN_MOTION": 14.30814856, "ECCENTRICITY": 0.0001207, "INCLINATION": 98.5712, "RA_OF_ASC_NODE": 67.9074, "ARG_OF_PERICENTER": 91.9552, "MEAN_ANOMALY": 268.1769, "EPHEMERIS_TYPE": 0, "CLASSIFICATION_TYPE": "U", "NORAD_CAT_ID": 42063, "ELEMENT_SET_NO": 999, "REV_AT_EPOCH": 45924, "BSTAR": 0.00015172133, "MEAN_MOTION_DOT": 3.54e-06, "MEAN_MOTION_DDOT": 0}, "tle": {"line1": "1 42063U 17013A   25355.58511612  .00000354  00000+0  15172-3 0  9996", "line2": "2 42063  98.5712  67.9074 0001207  91.9552 268.1769 14.30814856459246"}}, "geometry": {"type": "Point", "coordinates": [55.837872176115816, 54.97103513225015]}}, {"type": "Feature", "properties": {"norad_id": 42767, "name": "CARTOSAT-2E", "group": "resource", "lat": 49.49740122955377, "lon": 44.5946802040823, "alt_km": 504.9502900343823, "timestamp": "2025-12-21T22:41:41.105102+00:00", "meta": {"OBJECT_NAME": "CARTOSAT-2E", "OBJECT_ID": "2017-036C", "EPOCH": "2025-12-21T14:34:17.399712", "MEAN_MOTION": 15.19281354, "ECCENTRICITY": 0.00025629, "INCLINATION": 97.4545, "RA_OF_ASC_NODE": 53.0784, "ARG_OF_PERICENTER": 193.6534, "MEAN_ANOMALY": 166.4632, "EPHEMERIS_TYPE": 0, "CLASSIFICATION_TYPE": "U", "NORAD_CAT_ID": 42767, "ELEMENT_SET_NO": 999, "REV_AT_EPOCH": 47118, "BSTAR": 0.00027459871, "MEAN_MOTION_DOT": 5.726e-05, "MEAN_MOTION_DDOT": 0}, "tle": {"line1": "1 42767U 17036C   25355.60714583  .00005726  00000+0  27460-3 0  9998", "line2": "2 42767  97.4545  53.0784 0002562 193.6534 166.4632 15.19281354471183"}}, "geometry": {"type": "Point", "coordinates": [44.5946802040823, 49.49740122955377]}}, {"type": "Feature", "properties": {"norad_id": 42920, "name": "FORMOSAT-5", "group": "resource", "lat": 1.173008988008651, "lon": 69.90944799208661, "alt_km": 726.075934301055, "timestamp": "2025-12-21T22:41:41.105113+00:00", "meta": {"OBJECT_NAME": "FORMOSAT-5", "OBJECT_ID": "2017-049A", "EPOCH": "2025-12-21T11:06:08.641728", "MEAN_MOTION": 14.50765229, "ECCENTRICITY": 0.00098277, "INCLINATION": 98.2443, "RA_OF_ASC_NODE": 69.6064, "ARG_OF_PERICENTER": 271.8294, "MEAN_ANOMALY": 88.1775, "EPHEMERIS_TYPE": 0, "CLASSIFICATION_TYPE": "U", "NORAD_CAT_ID": 42920, "ELEMENT_SET_NO": 999, "REV_AT_EPOCH": 44090, "BSTAR": 5.3866767e-05, "MEAN_MOTION_DOT": 1.68e-06, "MEAN_MOTION_DDOT": 0}, "tle": {"line1": "1 42920U 17049A   25355.46260002  .00000168  00000+0  53867-4 0  9995", "line2": "2 42920  98.2443  69.6064 0009827 271.8294  88.1775 14.50765229440903"}}, "geometry": {"type": "Point", "coordinates": [69.90944799208661, 1.173008988008651]}}, {"type": "Feature", "properties": {"norad_id": 42969, "name": "SENTINEL-5P", "group": "resource", "lat": 76.56345232340406, "lon": -105.85859224595852, "alt_km": 819.0007085320012, "timestamp": "2025-12-21T22:41:41.105125+00:00", "meta": {"OBJECT_NAME": "SENTINEL-5P", "OBJECT_ID": "2017-064A", "EPOCH": "2025-12-21T13:51:43.162560", "MEAN_MOTION": 14.19519508, "ECCENTRICITY": 0.00010238, "INCLINATION": 98.7798, "RA_OF_ASC_NODE": 294.0837, "ARG_OF_PERICENTER": 91.1103, "MEAN_ANOMALY": 269.0191, "EPHEMERIS_TYPE": 0, "CLASSIFICATION_TYPE": "U", "NORAD_CAT_ID": 42969, "ELEMENT_SET_NO": 999, "REV_AT_EPOCH": 42436, "BSTAR": 4.8834984e-05, "MEAN_MOTION_DOT": 5.9e-07, "MEAN_MOTION_DDOT": 0}, "tle": {"line1": "1 42969U 17064A   25355.57758290  .00000059  00000+0  48835-4 0  9996", "line2": "2 42969  98.7798 294.0837 0001023  91.1103 269.0191 14.19519508424364"}}, "geometry": {"type": "Point", "coordinates": [-105.85859224595852, 76.56345232340406]}}]}